     2              NAVIGATION DATA                         RINEX VERSION / TYPE
CCRINEXN V1.6.0 UX  CDDIS               30-MAY-17 17:31     PGM / RUN BY / DATE 
IGS BROADCAST EPHEMERIS FILE                                COMMENT             
    0.6519D-08  0.2235D-07 -0.5960D-07 -0.1192D-06          ION ALPHA           
    0.8602D+05  0.9830D+05 -0.6554D+05 -0.5243D+06          ION BETA            
   -0.279396772385D-08-0.133226762955D-13   233472     1951 DELTA-UTC: A0,A1,T,W
    18                                                      LEAP SECONDS        
                                                            END OF HEADER       
 9 17  5 29  2  0  0.0 0.373103190213D-03 0.807176547823D-11 0.000000000000D+00
    0.760000000000D+02-0.147812500000D+02 0.494949188049D-08-0.606206348985D+00
   -0.808387994766D-06 0.725993770175D-03 0.688247382641D-05 0.515362024880D+04
    0.936000000000D+05 0.745058059692D-08-0.436665883515D+00-0.130385160446D-07
    0.953666639152D+00 0.242000000000D+03 0.196153181548D+01-0.822855703814D-08
   -0.506449667090D-09 0.100000000000D+01 0.195100000000D+04 0.000000000000D+00
    0.200000000000D+01 0.000000000000D+00 0.139698386192D-08 0.760000000000D+02
    0.864000000000D+05 0.400000000000D+01 0.000000000000D+00 0.000000000000D+00
10 17  5 29  2  0  0.0-0.411928631365D-04 0.106865627458D-10 0.000000000000D+00
    0.190000000000D+02 0.143750000000D+02 0.491341900499D-08 0.133244716276D+01
    0.938773155212D-06 0.252658850513D-02 0.795163214207D-05 0.515366769791D+04
    0.936000000000D+05 0.108033418655D-06-0.147680063349D+01 0.651925802231D-07
    0.959562605703D+00 0.226031250000D+03-0.276707463293D+01-0.814283929174D-08
    0.378587189376D-09 0.100000000000D+01 0.195100000000D+04 0.000000000000D+00
    0.200000000000D+01 0.000000000000D+00 0.186264514923D-08 0.190000000000D+02
    0.864000000000D+05 0.000000000000D+00 0.000000000000D+00 0.000000000000D+00
11 17  5 29  2  0  0.0-0.691407825798D-03-0.272848410532D-11 0.000000000000D+00
    0.108000000000D+03-0.133781250000D+03 0.572738142557D-08 0.291900575891D+01
   -0.702776014805D-05 0.167677069549D-01 0.753812491894D-05 0.515371774101D+04
    0.936000000000D+05 0.294297933578D-06-0.291791259191D+01-0.782310962677D-07
    0.901222614739D+00 0.199375000000D+03 0.164339264169D+01-0.836499129261D-08
   -0.285726187357D-10 0.100000000000D+01 0.195100000000D+04 0.000000000000D+00
    0.290000000000D+01 0.000000000000D+00-0.121071934700D-07 0.108000000000D+03
    0.864000000000D+05 0.400000000000D+01 0.000000000000D+00 0.000000000000D+00
12 17  5 29  2  0  0.0 0.382615718991D-03-0.795807864051D-12 0.000000000000D+00
    0.580000000000D+02 0.958437500000D+02 0.388516183259D-08 0.230827103479D+01
    0.493228435516D-05 0.665969168767D-02 0.302121043205D-05 0.515378385353D+04
    0.936000000000D+05 0.186264514923D-07 0.172604733323D+01-0.156462192535D-06
    0.988964071397D+00 0.335937500000D+03 0.882924924018D+00-0.803140596887D-08
    0.391444876679D-09 0.100000000000D+01 0.195100000000D+04 0.000000000000D+00
    0.200000000000D+01 0.000000000000D+00-0.125728547573D-07 0.580000000000D+02
    0.926880000000D+05 0.400000000000D+01 0.000000000000D+00 0.000000000000D+00
13 17  5 29  2  0  0.0-0.834506936371D-04-0.136424205266D-11 0.000000000000D+00
    0.103000000000D+03-0.921875000000D+01 0.439554023475D-08-0.232150057456D+01
   -0.543892383575D-06 0.371054525022D-02 0.817887485027D-05 0.515368329620D+04
    0.936000000000D+05 0.800937414169D-07-0.310475871995D+00 0.651925802231D-07
    0.969823401929D+00 0.228343750000D+03 0.183949886269D+01-0.781175396234D-08
   -0.665384858807D-09 0.100000000000D+01 0.195100000000D+04 0.000000000000D+00
    0.280000000000D+01 0.000000000000D+00-0.111758708954D-07 0.103000000000D+03
    0.864180000000D+05 0.400000000000D+01 0.000000000000D+00 0.000000000000D+00
14 17  5 29  2  0  0.0-0.724075362086D-04-0.136424205266D-11 0.000000000000D+00
    0.800000000000D+02-0.881250000000D+01 0.480377160272D-08-0.941264618010D+00
   -0.489875674248D-06 0.914459442720D-02 0.715628266334D-05 0.515364500999D+04
    0.936000000000D+05-0.745058059692D-08-0.349917819916D+00 0.188127160072D-06
    0.962312836101D+00 0.243406250000D+03-0.196082396209D+01-0.819891265991D-08
   -0.597167704175D-09 0.100000000000D+01 0.195100000000D+04 0.000000000000D+00
    0.280000000000D+01 0.000000000000D+00-0.931322574616D-08 0.800000000000D+02
    0.864000000000D+05 0.000000000000D+00 0.000000000000D+00 0.000000000000D+00
15 17  5 29  2  0  0.0-0.350749585777D-03-0.682121026330D-12 0.000000000000D+00
    0.650000000000D+02-0.119375000000D+02 0.548022827350D-08-0.151295114593D+01
   -0.627711415291D-06 0.914029194973D-02 0.644847750664D-05 0.515379408264D+04
    0.936000000000D+05 0.134110450745D-06-0.498265020429D+00-0.134110450745D-06
    0.929233633854D+00 0.238125000000D+03 0.582072801554D+00-0.836427697714D-08
   -0.448232956416D-09 0.100000000000D+01 0.195100000000D+04 0.000000000000D+00
    0.200000000000D+01 0.000000000000D+00-0.107102096081D-07 0.650000000000D+02
    0.864180000000D+05 0.400000000000D+01 0.000000000000D+00 0.000000000000D+00
16 17  5 29  2  0  0.0 0.340477563441D-04 0.568434188608D-12 0.000000000000D+00
    0.920000000000D+02 0.850625000000D+02 0.395802201036D-08 0.310734545170D+00
    0.457093119621D-05 0.933960231487D-02 0.376440584660D-05 0.515370298004D+04
    0.936000000000D+05 0.540167093277D-07 0.174491880091D+01 0.111758708954D-06
    0.989439259374D+00 0.321500000000D+03 0.452508471468D+00-0.815748264904D-08
    0.331085219600D-09 0.100000000000D+01 0.195100000000D+04 0.000000000000D+00
    0.200000000000D+01 0.000000000000D+00-0.107102096081D-07 0.920000000000D+02
    0.864000000000D+05 0.400000000000D+01 0.000000000000D+00 0.000000000000D+00
17 17  5 29  2  0  0.0-0.177400652319D-03 0.181898940355D-11 0.000000000000D+00
    0.500000000000D+02-0.941875000000D+02 0.435339562212D-08-0.637455281257D+00
   -0.481680035591D-05 0.116264991229D-01 0.403635203838D-05 0.515363720512D+04
    0.936000000000D+05-0.149011611938D-06 0.276270855831D+01 0.856816768646D-07
    0.980234153110D+00 0.316562500000D+03-0.184779970857D+01-0.833534720067D-08
   -0.100361323309D-09 0.100000000000D+01 0.195100000000D+04 0.000000000000D+00
    0.200000000000D+01 0.000000000000D+00-0.111758708954D-07 0.500000000000D+02
    0.864180000000D+05 0.400000000000D+01 0.000000000000D+00 0.000000000000D+00
18 17  5 29  2  0  0.0 0.617655459791D-03 0.170530256582D-11 0.000000000000D+00
    0.810000000000D+02 0.137500000000D+02 0.577809800006D-08 0.807819959161D+00
    0.800937414169D-06 0.180895011872D-01 0.839680433273D-05 0.515375609398D+04
    0.936000000000D+05-0.238418579102D-06-0.151899811049D+01 0.409781932831D-07
    0.925155950127D+00 0.206093750000D+03-0.180042268087D+01-0.885001139039D-08
    0.335371119764D-09 0.100000000000D+01 0.195100000000D+04 0.000000000000D+00
    0.200000000000D+01 0.000000000000D+00-0.111758708954D-07 0.810000000000D+02
    0.864000000000D+05 0.000000000000D+00 0.000000000000D+00 0.000000000000D+00
19 17  5 29  2  0  0.0-0.501880422234D-03 0.147792889038D-11 0.000000000000D+00
    0.850000000000D+02-0.115343750000D+03 0.424303388225D-08 0.244492481803D+01
   -0.609271228313D-05 0.103002645774D-01 0.406429171562D-05 0.515367200088D+04
    0.936000000000D+05-0.298023223877D-07 0.281053226465D+01-0.188127160072D-06
    0.977528287165D+00 0.310843750000D+03 0.979876885108D+00-0.795283126734D-08
   -0.145363197818D-09 0.100000000000D+01 0.195100000000D+04 0.000000000000D+00
    0.200000000000D+01 0.000000000000D+00-0.153668224812D-07 0.850000000000D+02
    0.864180000000D+05 0.400000000000D+01 0.000000000000D+00 0.000000000000D+00
20 17  5 29  2  0  0.0 0.474037136882D-03 0.147792889038D-11 0.000000000000D+00
    0.470000000000D+02 0.229687500000D+02 0.558487548962D-08-0.152532365709D+01
    0.123307108879D-05 0.432997278403D-02 0.822916626930D-05 0.515367601204D+04
    0.936000000000D+05-0.242143869400D-07-0.157036159728D+01 0.169500708580D-06
    0.926522631604D+00 0.202312500000D+03 0.159796912603D+01-0.845606651483D-08
    0.422874757288D-09 0.100000000000D+01 0.195100000000D+04 0.000000000000D+00
    0.200000000000D+01 0.000000000000D+00-0.838190317154D-08 0.470000000000D+02
    0.864180000000D+05 0.400000000000D+01 0.000000000000D+00 0.000000000000D+00
21 17  5 29  2  0  0.0-0.504255760461D-03 0.227373675443D-11 0.000000000000D+00
    0.600000000000D+02-0.118468750000D+03 0.480234289400D-08 0.173441063694D+01
   -0.642053782940D-05 0.239650150761D-01 0.110063701868D-04 0.515368417931D+04
    0.936000000000D+05 0.782310962677D-07-0.255960208997D+01-0.623986124992D-06
    0.939935024432D+00 0.159562500000D+03-0.166914624216D+01-0.800926218935D-08
    0.211794536378D-09 0.100000000000D+01 0.195100000000D+04 0.000000000000D+00
    0.200000000000D+01 0.000000000000D+00-0.977888703346D-08 0.600000000000D+02
    0.920100000000D+05 0.400000000000D+01 0.000000000000D+00 0.000000000000D+00
22 17  5 29  2  0  0.0-0.489037483931D-05-0.121644916362D-10 0.000000000000D+00
    0.610000000000D+02 0.260000000000D+02 0.564344935803D-08-0.115604163236D+01
    0.139698386192D-05 0.753284734674D-02 0.770948827267D-05 0.515381216049D+04
    0.936000000000D+05-0.894069671631D-07-0.151914130677D+01 0.135973095894D-06
    0.923198941707D+00 0.209937500000D+03-0.172700085446D+01-0.854035574010D-08
    0.372158359032D-09 0.100000000000D+01 0.195100000000D+04 0.000000000000D+00
    0.200000000000D+01 0.000000000000D+00-0.176951289177D-07 0.610000000000D+02
    0.864000000000D+05 0.400000000000D+01 0.000000000000D+00 0.000000000000D+00
